{
  "norad_id": 37389,
  "name": "X-SAT",
  "history": [
    {
      "epoch": "2026-04-11T21:08:31.251264Z",
      "apogee_km": 817.9306919221171,
      "perigee_km": 797.8055659580068,
      "latitude_deg": -3.929097072698083e-06,
      "longitude_deg": -75.14286332112397,
      "height_km": 820.7802101304878,
      "semi_major_axis_km": 7186.005128940062,
      "eccentricity": 0.0014003,
      "inclination_deg": 98.3474,
      "raan_deg": 82.0814,
      "arg_perigee_deg": 172.6567,
      "mean_anomaly_deg": 187.4821,
      "mean_motion_rev_day": 14.25185771
    },
    {
      "epoch": "2026-04-13T05:09:22.271904Z",
      "apogee_km": 817.9674921652604,
      "perigee_km": 797.7620361248719,
      "latitude_deg": 6.363733834367135e-05,
      "longitude_deg": 164.59926490680277,
      "height_km": 820.7023860978209,
      "semi_major_axis_km": 7186.001764145066,
      "eccentricity": 0.00140589,
      "inclination_deg": 98.3473,
      "raan_deg": 83.3509,
      "arg_perigee_deg": 168.713,
      "mean_anomaly_deg": 191.4369,
      "mean_motion_rev_day": 14.25186772
    },
    {
      "epoch": "2026-04-14T21:35:42.429696Z",
      "apogee_km": 818.0503490619985,
      "perigee_km": 797.672295020353,
      "latitude_deg": 4.145540090434274e-05,
      "longitude_deg": -82.04228878946641,
      "height_km": 820.5771272568576,
      "semi_major_axis_km": 7185.998322041175,
      "eccentricity": 0.0014179,
      "inclination_deg": 98.3471,
      "raan_deg": 84.9541,
      "arg_perigee_deg": 163.8687,
      "mean_anomaly_deg": 196.2948,
      "mean_motion_rev_day": 14.25187796
    },
    {
      "epoch": "2026-04-15T21:11:04.219872Z",
      "apogee_km": 818.0915165346496,
      "perigee_km": 797.6358469939405,
      "latitude_deg": 2.60548640697751e-05,
      "longitude_deg": -75.9163586887475,
      "height_km": 820.4595746801218,
      "semi_major_axis_km": 7186.000681764295,
      "eccentricity": 0.0014233,
      "inclination_deg": 98.347,
      "raan_deg": 85.8896,
      "arg_perigee_deg": 160.9798,
      "mean_anomaly_deg": 199.1917,
      "mean_motion_rev_day": 14.25187094
    },
    {
      "epoch": "2026-04-16T20:46:26.012640Z",
      "apogee_km": 818.1472409993121,
      "perigee_km": 797.5823410737248,
      "latitude_deg": 5.642788389508681e-05,
      "longitude_deg": -69.79064614527536,
      "height_km": 820.3387017040343,
      "semi_major_axis_km": 7186.001791036519,
      "eccentricity": 0.0014309,
      "inclination_deg": 98.3471,
      "raan_deg": 86.8249,
      "arg_perigee_deg": 158.2277,
      "mean_anomaly_deg": 201.9515,
      "mean_motion_rev_day": 14.25186764
    },
    {
      "epoch": "2026-04-17T22:02:53.551968Z",
      "apogee_km": 818.2128999876859,
      "perigee_km": 797.5088902921243,
      "latitude_deg": -2.43020196108511e-05,
      "longitude_deg": -88.94085954040446,
      "height_km": 820.188619621324,
      "semi_major_axis_km": 7185.997895139905,
      "eccentricity": 0.00144058,
      "inclination_deg": 98.3472,
      "raan_deg": 87.8274,
      "arg_perigee_deg": 155.2939,
      "mean_anomaly_deg": 204.8934,
      "mean_motion_rev_day": 14.25187923
    }
  ]
}